{
  "type": "FeatureCollection",
  "features": [
    {
      "type": "Feature",
      "properties": {
        "norad_id": 34121,
        "name": "COSMOS 2251 DEB",
        "group": "cosmos-2251-debris",
        "lat": 60.81522601876954,
        "lon": -105.53687158919504,
        "alt_km": 1082.6645298912308,
        "timestamp": "2025-12-07T22:37:43.475746+00:00",
        "meta_object_name": "COSMOS 2251 DEB",
        "meta_object_id": "1993-036KS",
        "meta_epoch": "2025-12-06T19:01:39.616896",
        "meta_mean_motion": 13.91898386,
        "meta_eccentricity": 0.02399284,
        "meta_inclination": 73.9926,
        "meta_ra_of_asc_node": 107.3609,
        "meta_arg_of_pericenter": 314.0819,
        "meta_mean_anomaly": 159.2971,
        "meta_ephemeris_type": 0,
        "meta_classification_type": "U",
        "meta_norad_cat_id": 34121,
        "meta_element_set_no": 999,
        "meta_rev_at_epoch": 85042,
        "meta_bstar": 0.0018590249,
        "meta_mean_motion_dot": 2.972e-05,
        "meta_mean_motion_ddot": 0,
        "tle_line1": "1 34121U 93036KS  25340.79281964  .00002972  00000+0  18590-2 0  9996",
        "tle_line2": "2 34121  73.9926 107.3609 0239928 314.0819 159.2971 13.91898386850423"
      },
      "geometry": {
        "type": "Point",
        "coordinates": [
          -105.53687158919504,
          60.81522601876954
        ]
      }
    },
    {
      "type": "Feature",
      "properties": {
        "norad_id": 34122,
        "name": "COSMOS 2251 DEB",
        "group": "cosmos-2251-debris",
        "lat": -3.5519257216035154,
        "lon": -51.119600868582516,
        "alt_km": 734.9779051840715,
        "timestamp": "2025-12-07T22:37:43.475757+00:00",
        "meta_object_name": "COSMOS 2251 DEB",
        "meta_object_id": "1993-036KT",
        "meta_epoch": "2025-12-07T04:34:22.753632",
        "meta_mean_motion": 14.64941738,
        "meta_eccentricity": 0.00840094,
        "meta_inclination": 74.0358,
        "meta_ra_of_asc_node": 129.3088,
        "meta_arg_of_pericenter": 27.7612,
        "meta_mean_anomaly": 149.4678,
        "meta_ephemeris_type": 0,
        "meta_classification_type": "U",
        "meta_norad_cat_id": 34122,
        "meta_element_set_no": 999,
        "meta_rev_at_epoch": 88603,
        "meta_bstar": 0.001899353,
        "meta_mean_motion_dot": 0.00010691,
        "meta_mean_motion_ddot": 0,
        "tle_line1": "1 34122U 93036KT  25341.19054113  .00010691  00000+0  18994-2 0  9991",
        "tle_line2": "2 34122  74.0358 129.3088 0084009  27.7612 149.4678 14.64941738886039"
      },
      "geometry": {
        "type": "Point",
        "coordinates": [
          -51.119600868582516,
          -3.5519257216035154
        ]
      }
    },
    {
      "type": "Feature",
      "properties": {
        "norad_id": 34127,
        "name": "COSMOS 2251 DEB",
        "group": "cosmos-2251-debris",
        "lat": -44.667588315429086,
        "lon": 36.25833291932368,
        "alt_km": 750.7112004093806,
        "timestamp": "2025-12-07T22:37:43.475767+00:00",
        "meta_object_name": "COSMOS 2251 DEB",
        "meta_object_id": "1993-036KY",
        "meta_epoch": "2025-12-07T04:33:21.408768",
        "meta_mean_motion": 14.31456849,
        "meta_eccentricity": 0.01148555,
        "meta_inclination": 74.1802,
        "meta_ra_of_asc_node": 53.8938,
        "meta_arg_of_pericenter": 255.2104,
        "meta_mean_anomaly": 137.7887,
        "meta_ephemeris_type": 0,
        "meta_classification_type": "U",
        "meta_norad_cat_id": 34127,
        "meta_element_set_no": 999,
        "meta_rev_at_epoch": 86692,
        "meta_bstar": 0.0030835384,
        "meta_mean_motion_dot": 8.786e-05,
        "meta_mean_motion_ddot": 0,
        "tle_line1": "1 34127U 93036KY  25341.18983112  .00008786  00000+0  30835-2 0  9995",
        "tle_line2": "2 34127  74.1802  53.8938 0114855 255.2104 137.7887 14.31456849866927"
      },
      "geometry": {
        "type": "Point",
        "coordinates": [
          36.25833291932368,
          -44.667588315429086
        ]
      }
    },
    {
      "type": "Feature",
      "properties": {
        "norad_id": 34128,
        "name": "COSMOS 2251 DEB",
        "group": "cosmos-2251-debris",
        "lat": 37.38883934871169,
        "lon": -40.824138834879015,
        "alt_km": 544.2659490860615,
        "timestamp": "2025-12-07T22:37:43.475778+00:00",
        "meta_object_name": "COSMOS 2251 DEB",
        "meta_object_id": "1993-036KZ",
        "meta_epoch": "2025-12-07T04:55:03.530208",
        "meta_mean_motion": 15.00758208,
        "meta_eccentricity": 0.00261773,
        "meta_inclination": 74.002,
        "meta_ra_of_asc_node": 308.014,
        "meta_arg_of_pericenter": 60.9216,
        "meta_mean_anomaly": 313.0486,
        "meta_ephemeris_type": 0,
        "meta_classification_type": "U",
        "meta_norad_cat_id": 34128,
        "meta_element_set_no": 999,
        "meta_rev_at_epoch": 89084,
        "meta_bstar": 0.0032099435,
        "meta_mean_motion_dot": 0.00041224,
        "meta_mean_motion_ddot": 0,
        "tle_line1": "1 34128U 93036KZ  25341.20490197  .00041224  00000+0  32099-2 0  9993",
        "tle_line2": "2 34128  74.0020 308.0140 0026177  60.9216 313.0486 15.00758208890846"
      },
      "geometry": {
        "type": "Point",
        "coordinates": [
          -40.824138834879015,
          37.38883934871169
        ]
      }
    },
    {
      "type": "Feature",
      "properties": {
        "norad_id": 34129,
        "name": "COSMOS 2251 DEB",
        "group": "cosmos-2251-debris",
        "lat": 31.47092939375548,
        "lon": -0.995441191692902,
        "alt_km": 623.2333787995458,
        "timestamp": "2025-12-07T22:37:43.475788+00:00",
        "meta_object_name": "COSMOS 2251 DEB",
        "meta_object_id": "1993-036LA",
        "meta_epoch": "2025-12-07T07:50:11.600160",
        "meta_mean_motion": 14.7559456,
        "meta_eccentricity": 0.00327517,
        "meta_inclination": 74.0349,
        "meta_ra_of_asc_node": 350.1176,
        "meta_arg_of_pericenter": 73.4317,
        "meta_mean_anomaly": 287.045,
        "meta_ephemeris_type": 0,
        "meta_classification_type": "U",
        "meta_norad_cat_id": 34129,
        "meta_element_set_no": 999,
        "meta_rev_at_epoch": 61218,
        "meta_bstar": 0.0018973074,
        "meta_mean_motion_dot": 0.00013048,
        "meta_mean_motion_ddot": 0,
        "tle_line1": "1 34129U 93036LA  25341.32652315  .00013048  00000+0  18973-2 0  9997",
        "tle_line2": "2 34129  74.0349 350.1176 0032751  73.4317 287.0450 14.75594560612184"
      },
      "geometry": {
        "type": "Point",
        "coordinates": [
          -0.995441191692902,
          31.47092939375548
        ]
      }
    },
    {
      "type": "Feature",
      "properties": {
        "norad_id": 34136,
        "name": "COSMOS 2251 DEB",
        "group": "cosmos-2251-debris",
        "lat": 63.687722808839055,
        "lon": -163.3177240450652,
        "alt_km": 596.9030094992613,
        "timestamp": "2025-12-07T22:37:43.475798+00:00",
        "meta_object_name": "COSMOS 2251 DEB",
        "meta_object_id": "1993-036LH",
        "meta_epoch": "2025-12-07T04:24:38.204928",
        "meta_mean_motion": 14.80016828,
        "meta_eccentricity": 0.0086243,
        "meta_inclination": 74.0214,
        "meta_ra_of_asc_node": 53.5899,
        "meta_arg_of_pericenter": 178.036,
        "meta_mean_anomaly": 211.2049,
        "meta_ephemeris_type": 0,
        "meta_classification_type": "U",
        "meta_norad_cat_id": 34136,
        "meta_element_set_no": 999,
        "meta_rev_at_epoch": 89928,
        "meta_bstar": 0.00083475672,
        "meta_mean_motion_dot": 6.701e-05,
        "meta_mean_motion_ddot": 0,
        "tle_line1": "1 34136U 93036LH  25341.18377552  .00006701  00000+0  83476-3 0  9995",
        "tle_line2": "2 34136  74.0214  53.5899 0086243 178.0360 211.2049 14.80016828899287"
      },
      "geometry": {
        "type": "Point",
        "coordinates": [
          -163.3177240450652,
          63.687722808839055
        ]
      }
    },
    {
      "type": "Feature",
      "properties": {
        "norad_id": 34139,
        "name": "COSMOS 2251 DEB",
        "group": "cosmos-2251-debris",
        "lat": -15.405059688442387,
        "lon": 87.7300028866734,
        "alt_km": 723.6048335986261,
        "timestamp": "2025-12-07T22:37:43.475809+00:00",
        "meta_object_name": "COSMOS 2251 DEB",
        "meta_object_id": "1993-036LL",
        "meta_epoch": "2025-12-07T05:58:08.526720",
        "meta_mean_motion": 14.58945144,
        "meta_eccentricity": 0.0042542,
        "meta_inclination": 74.0317,
        "meta_ra_of_asc_node": 264.527,
        "meta_arg_of_pericenter": 336.4485,
        "meta_mean_anomaly": 175.4339,
        "meta_ephemeris_type": 0,
        "meta_classification_type": "U",
        "meta_norad_cat_id": 34139,
        "meta_element_set_no": 999,
        "meta_rev_at_epoch": 88069,
        "meta_bstar": 0.0024994581,
        "meta_mean_motion_dot": 0.00011861,
        "meta_mean_motion_ddot": 0,
        "tle_line1": "1 34139U 93036LL  25341.24870980  .00011861  00000+0  24995-2 0  9991",
        "tle_line2": "2 34139  74.0317 264.5270 0042542 336.4485 175.4339 14.58945144880698"
      },
      "geometry": {
        "type": "Point",
        "coordinates": [
          87.7300028866734,
          -15.405059688442387
        ]
      }
    }
  ]
}